CCSDS_OMM_VERS = 2.0
CREATION_DATE  = 
ORIGINATOR     = 

OBJECT_NAME    = ISS (ZARYA)
OBJECT_ID      = 1998-067A
CENTER_NAME    = EARTH
REF_FRAME      = TEME
TIME_SYSTEM    = UTC
MEAN_ELEMENT_THEORY = SGP/SGP4

EPOCH          = 2026-02-25T15:18:51.920352
MEAN_MOTION    = 15.48288371
ECCENTRICITY   = .0008346
INCLINATION    = 51.6319
RA_OF_ASC_NODE = 131.9312
ARG_OF_PERICENTER = 132.6774
MEAN_ANOMALY   = 227.4919

EPHEMERIS_TYPE = 0
CLASSIFICATION_TYPE = U
NORAD_CAT_ID   = 25544
ELEMENT_SET_NO = 999
REV_AT_EPOCH   = 55446
BSTAR          = .18568E-3
MEAN_MOTION_DOT = .9551E-4
MEAN_MOTION_DDOT = 0

CCSDS_OMM_VERS = 2.0
CREATION_DATE  = 
ORIGINATOR     = 

OBJECT_NAME    = CSS (TIANHE)
OBJECT_ID      = 2021-035A
CENTER_NAME    = EARTH
REF_FRAME      = TEME
TIME_SYSTEM    = UTC
MEAN_ELEMENT_THEORY = SGP/SGP4

EPOCH          = 2026-02-26T01:36:20.998080
MEAN_MOTION    = 15.60105415
ECCENTRICITY   = .0005885
INCLINATION    = 41.4663
RA_OF_ASC_NODE = 278.8535
ARG_OF_PERICENTER = 197.5112
MEAN_ANOMALY   = 162.5524

EPHEMERIS_TYPE = 0
CLASSIFICATION_TYPE = U
NORAD_CAT_ID   = 48274
ELEMENT_SET_NO = 999
REV_AT_EPOCH   = 27579
BSTAR          = .12875E-3
MEAN_MOTION_DOT = .10434E-3
MEAN_MOTION_DDOT = 0

CCSDS_OMM_VERS = 2.0
CREATION_DATE  = 
ORIGINATOR     = 

OBJECT_NAME    = ISS (NAUKA)
OBJECT_ID      = 2021-066A
CENTER_NAME    = EARTH
REF_FRAME      = TEME
TIME_SYSTEM    = UTC
MEAN_ELEMENT_THEORY = SGP/SGP4

EPOCH          = 2026-02-25T15:18:51.920352
MEAN_MOTION    = 15.48288371
ECCENTRICITY   = .0008346
INCLINATION    = 51.6319
RA_OF_ASC_NODE = 131.9312
ARG_OF_PERICENTER = 132.6774
MEAN_ANOMALY   = 227.4919

EPHEMERIS_TYPE = 0
CLASSIFICATION_TYPE = U
NORAD_CAT_ID   = 49044
ELEMENT_SET_NO = 999
REV_AT_EPOCH   = 55439
BSTAR          = .18568E-3
MEAN_MOTION_DOT = .9551E-4
MEAN_MOTION_DDOT = 0

CCSDS_OMM_VERS = 2.0
CREATION_DATE  = 
ORIGINATOR     = 

OBJECT_NAME    = FREGAT DEB
OBJECT_ID      = 2011-037PF
CENTER_NAME    = EARTH
REF_FRAME      = TEME
TIME_SYSTEM    = UTC
MEAN_ELEMENT_THEORY = SGP/SGP4

EPOCH          = 2026-02-26T03:42:40.726656
MEAN_MOTION    = 12.39434237
ECCENTRICITY   = .094985
INCLINATION    = 51.6503
RA_OF_ASC_NODE = 335.3298
ARG_OF_PERICENTER = 32.8817
MEAN_ANOMALY   = 332.7637

EPHEMERIS_TYPE = 0
CLASSIFICATION_TYPE = U
NORAD_CAT_ID   = 49271
ELEMENT_SET_NO = 999
REV_AT_EPOCH   = 21126
BSTAR          = .45932E-1
MEAN_MOTION_DOT = .30355E-3
MEAN_MOTION_DDOT = 0

CCSDS_OMM_VERS = 2.0
CREATION_DATE  = 
ORIGINATOR     = 

OBJECT_NAME    = CSS (WENTIAN)
OBJECT_ID      = 2022-085A
CENTER_NAME    = EARTH
REF_FRAME      = TEME
TIME_SYSTEM    = UTC
MEAN_ELEMENT_THEORY = SGP/SGP4

EPOCH          = 2026-02-25T07:10:10.214976
MEAN_MOTION    = 15.60093757
ECCENTRICITY   = .00056542
INCLINATION    = 41.4665
RA_OF_ASC_NODE = 283.5238
ARG_OF_PERICENTER = 192.4411
MEAN_ANOMALY   = 167.6289

EPHEMERIS_TYPE = 0
CLASSIFICATION_TYPE = U
NORAD_CAT_ID   = 53239
ELEMENT_SET_NO = 999
REV_AT_EPOCH   = 17384
BSTAR          = .16665947E-3
MEAN_MOTION_DOT = .13605E-3
MEAN_MOTION_DDOT = 0

CCSDS_OMM_VERS = 2.0
CREATION_DATE  = 
ORIGINATOR     = 

OBJECT_NAME    = CSS (MENGTIAN)
OBJECT_ID      = 2022-143A
CENTER_NAME    = EARTH
REF_FRAME      = TEME
TIME_SYSTEM    = UTC
MEAN_ELEMENT_THEORY = SGP/SGP4

EPOCH          = 2026-02-25T07:10:10.214976
MEAN_MOTION    = 15.60093757
ECCENTRICITY   = .00056542
INCLINATION    = 41.4665
RA_OF_ASC_NODE = 283.5238
ARG_OF_PERICENTER = 192.4411
MEAN_ANOMALY   = 167.6289

EPHEMERIS_TYPE = 0
CLASSIFICATION_TYPE = U
NORAD_CAT_ID   = 54216
ELEMENT_SET_NO = 999
REV_AT_EPOCH   = 15864
BSTAR          = .16665947E-3
MEAN_MOTION_DOT = .13605E-3
MEAN_MOTION_DDOT = 0

CCSDS_OMM_VERS = 2.0
CREATION_DATE  = 
ORIGINATOR     = 

OBJECT_NAME    = PROGRESS-MS 31
OBJECT_ID      = 2025-146A
CENTER_NAME    = EARTH
REF_FRAME      = TEME
TIME_SYSTEM    = UTC
MEAN_ELEMENT_THEORY = SGP/SGP4

EPOCH          = 2026-02-25T13:45:55.251360
MEAN_MOTION    = 15.48286925
ECCENTRICITY   = .00083472
INCLINATION    = 51.6319
RA_OF_ASC_NODE = 132.2502
ARG_OF_PERICENTER = 132.4308
MEAN_ANOMALY   = 227.7387

EPHEMERIS_TYPE = 0
CLASSIFICATION_TYPE = U
NORAD_CAT_ID   = 64751
ELEMENT_SET_NO = 999
REV_AT_EPOCH   = 675
BSTAR          = .18599678E-3
MEAN_MOTION_DOT = .9568E-4
MEAN_MOTION_DDOT = 0

CCSDS_OMM_VERS = 2.0
CREATION_DATE  = 
ORIGINATOR     = 

OBJECT_NAME    = TIANZHOU-9
OBJECT_ID      = 2025-149A
CENTER_NAME    = EARTH
REF_FRAME      = TEME
TIME_SYSTEM    = UTC
MEAN_ELEMENT_THEORY = SGP/SGP4

EPOCH          = 2026-02-25T07:10:10.214976
MEAN_MOTION    = 15.60093757
ECCENTRICITY   = .00056542
INCLINATION    = 41.4665
RA_OF_ASC_NODE = 283.5238
ARG_OF_PERICENTER = 192.4411
MEAN_ANOMALY   = 167.6289

EPHEMERIS_TYPE = 0
CLASSIFICATION_TYPE = U
NORAD_CAT_ID   = 64786
ELEMENT_SET_NO = 999
REV_AT_EPOCH   = 25530
BSTAR          = .16665947E-3
MEAN_MOTION_DOT = .13605E-3
MEAN_MOTION_DDOT = 0

CCSDS_OMM_VERS = 2.0
CREATION_DATE  = 
ORIGINATOR     = 

OBJECT_NAME    = DRAGON CRS-33
OBJECT_ID      = 2025-186A
CENTER_NAME    = EARTH
REF_FRAME      = TEME
TIME_SYSTEM    = UTC
MEAN_ELEMENT_THEORY = SGP/SGP4

EPOCH          = 2026-02-25T13:45:55.251360
MEAN_MOTION    = 15.48286925
ECCENTRICITY   = .00083472
INCLINATION    = 51.6319
RA_OF_ASC_NODE = 132.2502
ARG_OF_PERICENTER = 132.4308
MEAN_ANOMALY   = 227.7387

EPHEMERIS_TYPE = 0
CLASSIFICATION_TYPE = U
NORAD_CAT_ID   = 65304
ELEMENT_SET_NO = 999
REV_AT_EPOCH   = 11
BSTAR          = .18599678E-3
MEAN_MOTION_DOT = .9568E-4
MEAN_MOTION_DDOT = 0

CCSDS_OMM_VERS = 2.0
CREATION_DATE  = 
ORIGINATOR     = 

OBJECT_NAME    = PROGRESS-MS 32
OBJECT_ID      = 2025-204A
CENTER_NAME    = EARTH
REF_FRAME      = TEME
TIME_SYSTEM    = UTC
MEAN_ELEMENT_THEORY = SGP/SGP4

EPOCH          = 2026-02-25T13:45:55.251360
MEAN_MOTION    = 15.48286925
ECCENTRICITY   = .00083472
INCLINATION    = 51.6319
RA_OF_ASC_NODE = 132.2502
ARG_OF_PERICENTER = 132.4308
MEAN_ANOMALY   = 227.7387

EPHEMERIS_TYPE = 0
CLASSIFICATION_TYPE = U
NORAD_CAT_ID   = 65586
ELEMENT_SET_NO = 999
REV_AT_EPOCH   = 27
BSTAR          = .18599678E-3
MEAN_MOTION_DOT = .9568E-4
MEAN_MOTION_DDOT = 0

CCSDS_OMM_VERS = 2.0
CREATION_DATE  = 
ORIGINATOR     = 

OBJECT_NAME    = CYGNUS NG-23
OBJECT_ID      = 2025-208A
CENTER_NAME    = EARTH
REF_FRAME      = TEME
TIME_SYSTEM    = UTC
MEAN_ELEMENT_THEORY = SGP/SGP4

EPOCH          = 2026-02-25T13:45:55.251360
MEAN_MOTION    = 15.48286925
ECCENTRICITY   = .00083472
INCLINATION    = 51.6319
RA_OF_ASC_NODE = 132.2502
ARG_OF_PERICENTER = 132.4308
MEAN_ANOMALY   = 227.7387

EPHEMERIS_TYPE = 0
CLASSIFICATION_TYPE = U
NORAD_CAT_ID   = 65616
ELEMENT_SET_NO = 999
REV_AT_EPOCH   = 22
BSTAR          = .18599678E-3
MEAN_MOTION_DOT = .9568E-4
MEAN_MOTION_DDOT = 0

CCSDS_OMM_VERS = 2.0
CREATION_DATE  = 
ORIGINATOR     = 

OBJECT_NAME    = ISS OBJECT XK
OBJECT_ID      = 1998-067XK
CENTER_NAME    = EARTH
REF_FRAME      = TEME
TIME_SYSTEM    = UTC
MEAN_ELEMENT_THEORY = SGP/SGP4

EPOCH          = 2026-02-25T09:03:15.019488
MEAN_MOTION    = 15.96653737
ECCENTRICITY   = .00075083
INCLINATION    = 51.6190
RA_OF_ASC_NODE = 112.0719
ARG_OF_PERICENTER = 17.9842
MEAN_ANOMALY   = 342.1431

EPHEMERIS_TYPE = 0
CLASSIFICATION_TYPE = U
NORAD_CAT_ID   = 65731
ELEMENT_SET_NO = 999
REV_AT_EPOCH   = 2492
BSTAR          = .11739148E-2
MEAN_MOTION_DOT = .510381E-2
MEAN_MOTION_DDOT = .11913904E-3

