ISS (ZARYA)             
1 25544U 98067A   26056.63810093  .00009551  00000+0  18568-3 0  9999
2 25544  51.6319 131.9312 0008346 132.6774 227.4919 15.48288371554463
CSS (TIANHE)            
1 48274U 21035A   26057.06690970  .00010434  00000+0  12875-3 0  9990
2 48274  41.4663 278.8535 0005885 197.5112 162.5524 15.60105415275794
ISS (NAUKA)             
1 49044U 21066A   26056.63810093  .00009551  00000+0  18568-3 0  9995
2 49044  51.6319 131.9312 0008346 132.6774 227.4919 15.48288371554396
FREGAT DEB              
1 49271U 11037PF  26057.15463804  .00030355  00000+0  45932-1 0  9995
2 49271  51.6503 335.3298 0949850  32.8817 332.7637 12.39434237211263
CSS (WENTIAN)           
1 53239U 22085A   26056.29872934  .00013605  00000+0  16666-3 0  9994
2 53239  41.4665 283.5238 0005654 192.4411 167.6289 15.60093757173848
CSS (MENGTIAN)          
1 54216U 22143A   26056.29872934  .00013605  00000+0  16666-3 0  9995
2 54216  41.4665 283.5238 0005654 192.4411 167.6289 15.60093757158645
PROGRESS-MS 31          
1 64751U 25146A   26056.57355615  .00009568  00000+0  18600-3 0  9992
2 64751  51.6319 132.2502 0008347 132.4308 227.7387 15.48286925  6752
TIANZHOU-9              
1 64786U 25149A   26056.29872934  .00013605  00000+0  16666-3 0  9997
2 64786  41.4665 283.5238 0005654 192.4411 167.6289 15.60093757255309
DRAGON CRS-33           
1 65304U 25186A   26056.57355615  .00009568  00000+0  18600-3 0  9991
2 65304  51.6319 132.2502 0008347 132.4308 227.7387 15.48286925   111
PROGRESS-MS 32          
1 65586U 25204A   26056.57355615  .00009568  00000+0  18600-3 0  9994
2 65586  51.6319 132.2502 0008347 132.4308 227.7387 15.48286925   270
CYGNUS NG-23            
1 65616U 25208A   26056.57355615  .00009568  00000+0  18600-3 0  9992
2 65616  51.6319 132.2502 0008347 132.4308 227.7387 15.48286925   229
ISS OBJECT XK           
1 65731U 98067XK  26056.37725717  .00510381  11914-3  11739-2 0  9990
2 65731  51.6190 112.0719 0007508  17.9842 342.1431 15.96653737 24925
